OBJECT_NAME,OBJECT_ID,EPOCH,MEAN_MOTION,ECCENTRICITY,INCLINATION,RA_OF_ASC_NODE,ARG_OF_PERICENTER,MEAN_ANOMALY,EPHEMERIS_TYPE,CLASSIFICATION_TYPE,NORAD_CAT_ID,ELEMENT_SET_NO,REV_AT_EPOCH,BSTAR,MEAN_MOTION_DOT,MEAN_MOTION_DDOT
GSAT-16,2014-078A,2026-06-13T22:30:19.372608,1.00272138,.00075424,0.0814,90.7459,356.5365,207.6345,0,U,40332,999,4207,0,.94E-6,0
DIRECTV 14,2014-078B,2026-06-13T21:14:09.777696,1.00269987,.00003624,0.0104,9.5129,262.4259,209.5540,0,U,40333,999,4201,0,-.115E-5,0
YAMAL 401,2014-082A,2026-06-13T23:14:54.356352,1.00272795,.00002331,0.0147,267.7009,309.6100,123.6544,0,U,40345,999,4188,0,-.219E-5,0
ASTRA 2G,2014-089A,2026-06-13T21:58:17.563584,1.00272046,.00045278,0.0464,345.1048,83.1060,191.7836,0,U,40364,999,4193,0,.16E-5,0
FENGYUN 2G,2014-090A,2026-06-13T18:53:04.530336,1.00273878,.00039762,5.6288,72.8570,153.7441,58.4326,0,U,40367,999,4196,0,-.297E-5,0
MUOS-3,2015-002A,2026-06-13T21:38:07.324224,1.00271707,.00517725,4.5147,43.5112,178.1837,349.6124,0,U,40374,999,4155,0,-.122E-5,0
INMARSAT 5-F2,2015-005A,2026-06-13T11:10:50.284128,1.00272582,.00005165,0.0174,358.0389,277.4882,98.9686,0,U,40384,999,4095,0,-.274E-5,0
ABS-3A,2015-010A,2026-06-13T21:41:36.987648,1.00270008,.00018296,0.0377,53.4887,346.0326,185.0617,0,U,40424,999,4134,0,0,0
EUTELSAT 115 WEST B,2015-010B,2026-06-13T16:01:27.267744,1.00270053,.00002647,0.0219,165.9426,273.2433,308.2619,0,U,40425,999,4135,0,-.14E-6,0
EXPRESS-AM7,2015-012A,2026-06-13T22:12:40.908672,1.00268805,.00027951,0.0052,35.9502,53.6473,185.8019,0,U,40505,999,4097,0,.161E-5,0
BEIDOU-3S IGSO-1S,2015-019A,2026-06-13T20:31:20.100864,1.00251097,.00389807,49.2022,295.5028,190.8161,175.4083,0,U,40549,999,4104,0,-.18E-5,0
THOR 7,2015-022A,2026-06-13T21:42:14.428224,1.00271617,.00023807,0.0422,118.1073,325.8058,143.2048,0,U,40613,999,4078,0,.2E-7,0
TURKMENALEM52E/MONACOSAT,2015-023A,2026-06-13T22:27:40.482144,1.00269568,.00026549,0.0282,66.9941,9.9226,214.2623,0,U,40617,999,4081,0,.114E-5,0
DIRECTV 15,2015-026A,2026-06-13T16:05:11.908608,1.00271089,.00002133,0.0162,23.0450,244.7916,132.5735,0,U,40663,999,4042,0,-.92E-6,0
SKY MEXICO-1,2015-026B,2026-06-13T21:20:01.715136,1.00270972,.00019451,0.0015,359.3430,105.0709,38.9955,0,U,40664,999,4042,0,-.224E-5,0
METEOSAT-11 (MSG-4),2015-034A,2026-06-13T21:45:14.141088,1.00279333,.0001767,3.1935,71.1295,9.2977,157.6657,0,U,40732,999,718,0,.72E-6,0
STAR ONE C4,2015-034B,2026-06-13T14:31:44.369760,1.00270728,.00020131,0.0319,32.5528,39.8487,337.4623,0,U,40733,999,3997,0,-.254E-5,0
WGS F7 (USA 263),2015-036A,2026-06-13T17:24:23.198400,1.00271862,.00002389,0.0030,355.1090,304.4893,38.5263,0,U,40746,999,3983,0,.28E-6,0
INTELSAT 34 (IS-34),2015-039A,2026-06-13T19:44:03.094656,1.00271005,.00005103,0.0106,347.1785,343.3327,172.1492,0,U,40874,999,3960,0,-.275E-5,0
EUTELSAT 8 WEST B,2015-039B,2026-06-13T21:40:14.619936,1.00271729,.00039224,0.0650,7.9355,71.4676,139.8704,0,U,40875,999,3962,0,-.56E-6,0
GSAT-6,2015-041A,2026-06-13T23:04:05.322144,1.00272620,.00033323,1.9114,82.6351,354.6491,253.5324,0,U,40880,999,3956,0,-.152E-5,0
INMARSAT 5-F3,2015-042A,2026-06-13T15:43:06.527424,1.00269077,.00001659,0.0186,12.6796,191.7654,112.9334,0,U,40882,999,3953,0,.61E-6,0
MUOS-4,2015-044A,2026-06-13T22:54:54.387360,1.00270443,.00577727,4.3236,42.2227,2.0809,276.6715,0,U,40887,999,3952,0,-.86E-6,0
TJS-1,2015-046A,2026-06-13T22:26:37.741056,1.00271138,.00054703,0.3149,84.9394,357.9967,311.0272,0,U,40892,999,3953,0,-.146E-5,0
EXPRESS-AM8,2015-048A,2026-06-13T21:38:29.788224,1.00268361,.0000398,0.0129,298.6228,335.5935,298.6168,0,U,40895,999,3931,0,-.102E-5,0
BEIDOU-3S IGSO-2S,2015-053A,2026-06-12T17:52:21.677376,1.00260455,.0065652,49.2285,258.8368,191.9654,173.7671,0,U,40938,999,3931,0,-.142E-5,0
SKY MUSTER 1 (NBN1A),2015-054A,2026-06-13T18:57:11.937600,1.00268727,.00015531,0.0252,337.8248,114.6886,234.1236,0,U,40940,999,3922,0,0,0
ARSAT 2,2015-054B,2026-06-13T21:19:24.275424,1.00271476,.00019615,0.0272,47.2094,19.8489,73.9901,0,U,40941,999,3927,0,-.215E-5,0
MORELOS 3,2015-056A,2026-06-13T21:10:17.649408,1.00272621,.00012758,3.1842,14.9884,1.7661,89.9071,0,U,40946,999,3925,0,-.36E-6,0
APSTAR-9,2015-059A,2026-06-13T22:23:00.587616,1.00272617,.00022108,0.0263,33.7991,155.4855,190.7139,0,U,40982,999,3908,0,-.256E-5,0
TURKSAT 4B,2015-060A,2026-06-13T21:56:40.613280,1.00270344,.00021776,0.0303,70.1850,356.7167,214.4662,0,U,40984,999,3906,0,.125E-5,0
ZHONGXING-2C,2015-063A,2026-06-13T22:12:01.640736,1.00272527,.00075493,0.2637,90.1131,98.2983,150.2827,0,U,41021,999,3894,0,-.314E-5,0
