GSAT-16                 
1 40332U 14078A   26164.93772422  .00000094  00000+0  00000+0 0  9998
2 40332   0.0814  90.7459 0007542 356.5365 207.6345  1.00272138 42076
DIRECTV 14              
1 40333U 14078B   26164.88483539 -.00000115  00000+0  00000+0 0  9996
2 40333   0.0104   9.5129 0000362 262.4259 209.5540  1.00269987 42011
YAMAL 401               
1 40345U 14082A   26164.96868468 -.00000219  00000+0  00000+0 0  9996
2 40345   0.0147 267.7009 0000233 309.6100 123.6544  1.00272795 41887
ASTRA 2G                
1 40364U 14089A   26164.91548106  .00000160  00000+0  00000+0 0  9997
2 40364   0.0464 345.1048 0004527  83.1060 191.7836  1.00272046 41938
FENGYUN 2G              
1 40367U 14090A   26164.78685799 -.00000297  00000+0  00000+0 0  9999
2 40367   5.6288  72.8570 0003976 153.7441  58.4326  1.00273878 41964
MUOS-3                  
1 40374U 15002A   26164.90147366 -.00000122  00000+0  00000+0 0  9995
2 40374   4.5147  43.5112 0051772 178.1837 349.6124  1.00271707 41553
INMARSAT 5-F2           
1 40384U 15005A   26164.46585977 -.00000274  00000+0  00000+0 0  9992
2 40384   0.0174 358.0389 0000516 277.4882  98.9686  1.00272582 40950
ABS-3A                  
1 40424U 15010A   26164.90390032  .00000000  00000+0  00000+0 0  9994
2 40424   0.0377  53.4887 0001829 346.0326 185.0617  1.00270008 41340
EUTELSAT 115 WEST B     
1 40425U 15010B   26164.66767671 -.00000014  00000+0  00000+0 0  9991
2 40425   0.0219 165.9426 0000264 273.2433 308.2619  1.00270053 41358
EXPRESS-AM7             
1 40505U 15012A   26164.92547348  .00000161  00000+0  00000+0 0  9990
2 40505   0.0052  35.9502 0002795  53.6473 185.8019  1.00268805 40970
BEIDOU-3S IGSO-1S       
1 40549U 15019A   26164.85509376 -.00000180  00000+0  00000+0 0  9998
2 40549  49.2022 295.5028 0038980 190.8161 175.4083  1.00251097 41040
THOR 7                  
1 40613U 15022A   26164.90433366  .00000002  00000+0  00000+0 0  9997
2 40613   0.0422 118.1073 0002380 325.8058 143.2048  1.00271617 40785
TURKMENALEM52E/MONACOSAT
1 40617U 15023A   26164.93588521  .00000114  00000+0  00000+0 0  9993
2 40617   0.0282  66.9941 0002654   9.9226 214.2623  1.00269568 40812
DIRECTV 15              
1 40663U 15026A   26164.67027672 -.00000092  00000+0  00000+0 0  9999
2 40663   0.0162  23.0450 0000213 244.7916 132.5735  1.00271089 40427
SKY MEXICO-1            
1 40664U 15026B   26164.88890874 -.00000224  00000+0  00000+0 0  9992
2 40664   0.0015 359.3430 0001945 105.0709  38.9955  1.00270972 40423
METEOSAT-11 (MSG-4)     
1 40732U 15034A   26164.90641367  .00000072  00000+0  00000+0 0  9991
2 40732   3.1935  71.1295 0001767   9.2977 157.6657  1.00279333  7180
STAR ONE C4             
1 40733U 15034B   26164.60537465 -.00000254  00000+0  00000+0 0  9995
2 40733   0.0319  32.5528 0002013  39.8487 337.4623  1.00270728 39975
WGS F7 (USA 263)        
1 40746U 15036A   26164.72526850  .00000028  00000+0  00000+0 0  9998
2 40746   0.0030 355.1090 0000238 304.4893  38.5263  1.00271862 39830
INTELSAT 34 (IS-34)     
1 40874U 15039A   26164.82225804 -.00000275  00000+0  00000+0 0  9994
2 40874   0.0106 347.1785 0000510 343.3327 172.1492  1.00271005 39608
EUTELSAT 8 WEST B       
1 40875U 15039B   26164.90294699 -.00000056  00000+0  00000+0 0  9999
2 40875   0.0650   7.9355 0003922  71.4676 139.8704  1.00271729 39624
GSAT-6                  
1 40880U 15041A   26164.96117271 -.00000152  00000+0  00000+0 0  9991
2 40880   1.9114  82.6351 0003332 354.6491 253.5324  1.00272620 39563
INMARSAT 5-F3           
1 40882U 15042A   26164.65493666  .00000061  00000+0  00000+0 0  9993
2 40882   0.0186  12.6796 0000165 191.7654 112.9334  1.00269077 39530
MUOS-4                  
1 40887U 15044A   26164.95479615 -.00000086  00000+0  00000+0 0  9999
2 40887   4.3236  42.2227 0057772   2.0809 276.6715  1.00270443 39527
TJS-1                   
1 40892U 15046A   26164.93515904 -.00000146  00000+0  00000+0 0  9994
2 40892   0.3149  84.9394 0005470 357.9967 311.0272  1.00271138 39530
EXPRESS-AM8             
1 40895U 15048A   26164.90173366 -.00000102  00000+0  00000+0 0  9990
2 40895   0.0129 298.6228 0000398 335.5935 298.6168  1.00268361 39313
BEIDOU-3S IGSO-2S       
1 40938U 15053A   26163.74469534 -.00000142  00000+0  00000+0 0  9994
2 40938  49.2285 258.8368 0065652 191.9654 173.7671  1.00260455 39316
SKY MUSTER 1 (NBN1A)    
1 40940U 15054A   26164.78972150  .00000000  00000+0  00000+0 0  9998
2 40940   0.0252 337.8248 0001553 114.6886 234.1236  1.00268727 39221
ARSAT 2                 
1 40941U 15054B   26164.88847541 -.00000215  00000+0  00000+0 0  9994
2 40941   0.0272  47.2094 0001961  19.8489  73.9901  1.00271476 39271
MORELOS 3               
1 40946U 15056A   26164.88214872 -.00000036  00000+0  00000+0 0  9997
2 40946   3.1842  14.9884 0001275   1.7661  89.9071  1.00272621 39257
APSTAR-9                
1 40982U 15059A   26164.93264569 -.00000256  00000+0  00000+0 0  9998
2 40982   0.0263  33.7991 0002210 155.4855 190.7139  1.00272617 39082
TURKSAT 4B              
1 40984U 15060A   26164.91435895  .00000125  00000+0  00000+0 0  9996
2 40984   0.0303  70.1850 0002177 356.7167 214.4662  1.00270344 39060
ZHONGXING-2C            
1 41021U 15063A   26164.92501899 -.00000314  00000+0  00000+0 0  9992
2 41021   0.2637  90.1131 0007549  98.2983 150.2827  1.00272527 38942
